{
    "links": {
        "self": "http://www.neowsapp.com/rest/v1/neo/3989334?api_key=iIulBulltgU6a56xZRHN4H3l9WmuAYTsLGpBGhQ2"
    },
    "id": "3989334",
    "neo_reference_id": "3989334",
    "name": "(2020 BL14)",
    "designation": "2020 BL14",
    "nasa_jpl_url": "http://ssd.jpl.nasa.gov/sbdb.cgi?sstr=3989334",
    "absolute_magnitude_h": 25.154,
    "estimated_diameter": {
        "kilometers": {
            "estimated_diameter_min": 0.0247602472,
            "estimated_diameter_max": 0.0553655959
        },
        "meters": {
            "estimated_diameter_min": 24.76024722,
            "estimated_diameter_max": 55.3655959237
        },
        "miles": {
            "estimated_diameter_min": 0.0153852996,
            "estimated_diameter_max": 0.0344025757
        },
        "feet": {
            "estimated_diameter_min": 81.2344094894,
            "estimated_diameter_max": 181.6456617304
        }
    },
    "is_potentially_hazardous_asteroid": false,
    "close_approach_data": [
        {
            "close_approach_date": "2018-05-18",
            "close_approach_date_full": "2018-May-18 16:47",
            "epoch_date_close_approach": 1526662020000,
            "relative_velocity": {
                "kilometers_per_second": "13.1946136914",
                "kilometers_per_hour": "47500.6092889914",
                "miles_per_hour": "29515.0313662625"
            },
            "miss_distance": {
                "astronomical": "0.2658374338",
                "lunar": "103.4107617482",
                "kilometers": "39768713.862746006",
                "miles": "24711132.9238506428"
            },
            "orbiting_body": "Earth"
        },
        {
            "close_approach_date": "2020-02-16",
            "close_approach_date_full": "2020-Feb-16 15:30",
            "epoch_date_close_approach": 1581867000000,
            "relative_velocity": {
                "kilometers_per_second": "8.8471702183",
                "kilometers_per_hour": "31849.8127857217",
                "miles_per_hour": "19790.2350612169"
            },
            "miss_distance": {
                "astronomical": "0.0462790854",
                "lunar": "18.0025642206",
                "kilometers": "6923252.601388098",
                "miles": "4301909.6842998324"
            },
            "orbiting_body": "Earth"
        },
        {
            "close_approach_date": "2070-05-12",
            "close_approach_date_full": "2070-May-12 15:11",
            "epoch_date_close_approach": 3167133060000,
            "relative_velocity": {
                "kilometers_per_second": "10.8104770507",
                "kilometers_per_hour": "38917.7173825506",
                "miles_per_hour": "24181.9561147298"
            },
            "miss_distance": {
                "astronomical": "0.2023365643",
                "lunar": "78.7089235127",
                "kilometers": "30269119.042398041",
                "miles": "18808358.4177773258"
            },
            "orbiting_body": "Earth"
        },
        {
            "close_approach_date": "2072-02-09",
            "close_approach_date_full": "2072-Feb-09 03:28",
            "epoch_date_close_approach": 3222214080000,
            "relative_velocity": {
                "kilometers_per_second": "11.1869536482",
                "kilometers_per_hour": "40273.033133606",
                "miles_per_hour": "25024.096615712"
            },
            "miss_distance": {
                "astronomical": "0.1274543064",
                "lunar": "49.5797251896",
                "kilometers": "19066892.759767368",
                "miles": "11847617.7795829584"
            },
            "orbiting_body": "Earth"
        }
    ],
    "orbital_data": {
        "orbit_id": "4",
        "orbit_determination_date": "2020-09-11 07:47:10",
        "first_observation_date": "2020-01-29",
        "last_observation_date": "2020-02-16",
        "data_arc_in_days": 18,
        "observations_used": 38,
        "orbit_uncertainty": "8",
        "minimum_orbit_intersection": ".0247762",
        "jupiter_tisserand_invariant": "4.361",
        "epoch_osculation": "2458879.5",
        "eccentricity": ".3735497768361318",
        "semi_major_axis": "1.549424414583358",
        "inclination": "7.935859980744207",
        "ascending_node_longitude": "144.8504209564711",
        "orbital_period": "704.4562381748806",
        "perihelion_distance": ".9706372702912904",
        "perihelion_argument": "36.9037144780989",
        "aphelion_distance": "2.128211558875425",
        "perihelion_time": "2458923.815396815385",
        "mean_anomaly": "337.3533940236354",
        "mean_motion": ".5110324538152934",
        "equinox": "J2000",
        "orbit_class": {
            "orbit_class_type": "APO",
            "orbit_class_description": "Near-Earth asteroid orbits which cross the Earth’s orbit similar to that of 1862 Apollo",
            "orbit_class_range": "a (semi-major axis) > 1.0 AU; q (perihelion) < 1.017 AU"
        }
    },
    "is_sentry_object": false
}